[{"OBJECT_NAME":"COSMOS 2361","OBJECT_ID":"1998-076A","EPOCH":"2026-02-01T19:56:09.391200","MEAN_MOTION":13.73223663,"ECCENTRICITY":0.00325645,"INCLINATION":82.9363,"RA_OF_ASC_NODE":306.3084,"ARG_OF_PERICENTER":122.2298,"MEAN_ANOMALY":299.0801,"EPHEMERIS_TYPE":0,"CLASSIFICATION_TYPE":"U","NORAD_CAT_ID":25590,"ELEMENT_SET_NO":999,"REV_AT_EPOCH":35812,"BSTAR":5.7236782e-5,"MEAN_MOTION_DOT":6.9e-7,"MEAN_MOTION_DDOT":0},{"OBJECT_NAME":"COSMOS 2378","OBJECT_ID":"2001-023A","EPOCH":"2026-02-01T22:17:35.035872","MEAN_MOTION":13.74147294,"ECCENTRICITY":0.00342843,"INCLINATION":82.9303,"RA_OF_ASC_NODE":321.7758,"ARG_OF_PERICENTER":65.4398,"MEAN_ANOMALY":3.8265,"EPHEMERIS_TYPE":0,"CLASSIFICATION_TYPE":"U","NORAD_CAT_ID":26818,"ELEMENT_SET_NO":999,"REV_AT_EPOCH":23626,"BSTAR":4.1522283e-5,"MEAN_MOTION_DOT":5.5e-7,"MEAN_MOTION_DDOT":0},{"OBJECT_NAME":"COSMOS 2389","OBJECT_ID":"2002-026A","EPOCH":"2026-02-01T18:39:07.295328","MEAN_MOTION":13.75161086,"ECCENTRICITY":0.00450463,"INCLINATION":82.9487,"RA_OF_ASC_NODE":269.2082,"ARG_OF_PERICENTER":277.8875,"MEAN_ANOMALY":154.091,"EPHEMERIS_TYPE":0,"CLASSIFICATION_TYPE":"U","NORAD_CAT_ID":27436,"ELEMENT_SET_NO":999,"REV_AT_EPOCH":18850,"BSTAR":6.4605996e-5,"MEAN_MOTION_DOT":7.7e-7,"MEAN_MOTION_DDOT":0},{"OBJECT_NAME":"COSMOS 2398","OBJECT_ID":"2003-023A","EPOCH":"2026-02-01T23:17:14.924832","MEAN_MOTION":13.72392061,"ECCENTRICITY":0.00307657,"INCLINATION":82.945,"RA_OF_ASC_NODE":234.9433,"ARG_OF_PERICENTER":332.7936,"MEAN_ANOMALY":137.4886,"EPHEMERIS_TYPE":0,"CLASSIFICATION_TYPE":"U","NORAD_CAT_ID":27818,"ELEMENT_SET_NO":999,"REV_AT_EPOCH":13519,"BSTAR":5.8424526e-5,"MEAN_MOTION_DOT":6.8e-7,"MEAN_MOTION_DDOT":0},{"OBJECT_NAME":"COSMOS 2407","OBJECT_ID":"2004-028A","EPOCH":"2026-02-01T22:22:05.274336","MEAN_MOTION":13.76320602,"ECCENTRICITY":0.00379565,"INCLINATION":82.9627,"RA_OF_ASC_NODE":174.9902,"ARG_OF_PERICENTER":270.5447,"MEAN_ANOMALY":209.2327,"EPHEMERIS_TYPE":0,"CLASSIFICATION_TYPE":"U","NORAD_CAT_ID":28380,"ELEMENT_SET_NO":999,"REV_AT_EPOCH":8127,"BSTAR":5.182819e-5,"MEAN_MOTION_DOT":6.6e-7,"MEAN_MOTION_DDOT":0},{"OBJECT_NAME":"COSMOS 2414","OBJECT_ID":"2005-002A","EPOCH":"2026-02-01T20:39:22.353696","MEAN_MOTION":13.87910028,"ECCENTRICITY":0.00398571,"INCLINATION":82.9526,"RA_OF_ASC_NODE":146.0098,"ARG_OF_PERICENTER":357.2746,"MEAN_ANOMALY":2.8194,"EPHEMERIS_TYPE":0,"CLASSIFICATION_TYPE":"U","NORAD_CAT_ID":28521,"ELEMENT_SET_NO":999,"REV_AT_EPOCH":6504,"BSTAR":4.3707745e-5,"MEAN_MOTION_DOT":6.8e-7,"MEAN_MOTION_DDOT":0},{"OBJECT_NAME":"COSMOS 2429","OBJECT_ID":"2007-038A","EPOCH":"2026-02-01T20:53:53.097216","MEAN_MOTION":13.7515449,"ECCENTRICITY":0.00370175,"INCLINATION":82.9826,"RA_OF_ASC_NODE":305.6246,"ARG_OF_PERICENTER":252.9731,"MEAN_ANOMALY":106.7368,"EPHEMERIS_TYPE":0,"CLASSIFICATION_TYPE":"U","NORAD_CAT_ID":32052,"ELEMENT_SET_NO":999,"REV_AT_EPOCH":92305,"BSTAR":2.9985694e-5,"MEAN_MOTION_DOT":4.4e-7,"MEAN_MOTION_DDOT":0},{"OBJECT_NAME":"COSMOS 2454","OBJECT_ID":"2009-039A","EPOCH":"2026-02-01T19:11:05.398656","MEAN_MOTION":13.89936595,"ECCENTRICITY":0.00178173,"INCLINATION":82.9582,"RA_OF_ASC_NODE":129.9457,"ARG_OF_PERICENTER":287.3672,"MEAN_ANOMALY":188.6642,"EPHEMERIS_TYPE":0,"CLASSIFICATION_TYPE":"U","NORAD_CAT_ID":35635,"ELEMENT_SET_NO":999,"REV_AT_EPOCH":83859,"BSTAR":5.7406206e-5,"MEAN_MOTION_DOT":8.6e-7,"MEAN_MOTION_DDOT":0},{"OBJECT_NAME":"COSMOS 2463","OBJECT_ID":"2010-017A","EPOCH":"2026-02-01T22:47:29.012640","MEAN_MOTION":13.71654249,"ECCENTRICITY":0.00368832,"INCLINATION":82.9635,"RA_OF_ASC_NODE":349.0799,"ARG_OF_PERICENTER":143.4989,"MEAN_ANOMALY":278.5455,"EPHEMERIS_TYPE":0,"CLASSIFICATION_TYPE":"U","NORAD_CAT_ID":36519,"ELEMENT_SET_NO":999,"REV_AT_EPOCH":78939,"BSTAR":3.2554617e-5,"MEAN_MOTION_DOT":4.5e-7,"MEAN_MOTION_DDOT":0}]
